--- ! '{"date":{"pretty":"1:47 PM PDT on October 17, 2011","year":"2011","mon":"10","mday":"17","hour":"13","min":"47","tzname":"America/Los_Angeles"},"utcdate":{"pretty":"8:47
  PM GMT on October 17, 2011","year":"2011","mon":"10","mday":"17","hour":"20","min":"47","tzname":"UTC"},"tempm":"28.0","tempi":"82.4","dewptm":"15.0","dewpti":"59.0","hum":"45","wspdm":"7.4","wspdi":"4.6","wgustm":"-9999.0","wgusti":"-9999.0","wdird":"0","wdire":"Variable","vism":"40.2","visi":"25.0","pressurem":"1020.2","pressurei":"30.13","windchillm":"-999","windchilli":"-999","heatindexm":"28.0","heatindexi":"82.5","precipm":"-9999.00","precipi":"-9999.00","conds":"Clear","icon":"clear","fog":"0","rain":"0","snow":"0","hail":"0","thunder":"0","tornado":"0","metar":"METAR
  KPAO 172047Z VRB04KT 25SM SKC 28/15 A3013"}'
